[Satellite]
VERSION=1.1
NAME=IRIDIUM 152
NICKNAME=IRIDIUM 152
TLE1=1 43479U 18047D   20158.06784446  .00000057  00000-0  13173-4 0  9993
TLE2=2 43479  86.3953 288.6042 0002170 103.4588 256.6850 14.34215673106861
STATUS=0
